[{"OBJECT_NAME":"STARLINK-32468","OBJECT_ID":"2024-224L","EPOCH":"2026-03-09T06:03:55.936800","MEAN_MOTION":15.27581167,"ECCENTRICITY":8.536e-5,"INCLINATION":43.0007,"RA_OF_ASC_NODE":160.5338,"ARG_OF_PERICENTER":242.2543,"MEAN_ANOMALY":117.8222,"EPHEMERIS_TYPE":0,"CLASSIFICATION_TYPE":"U","NORAD_CAT_ID":62149,"ELEMENT_SET_NO":999,"REV_AT_EPOCH":7225,"BSTAR":0.0014268879,"MEAN_MOTION_DOT":0.00039213,"MEAN_MOTION_DDOT":0},{"OBJECT_NAME":"HAWK-11C","OBJECT_ID":"2024-247E","EPOCH":"2026-03-09T12:17:35.407968","MEAN_MOTION":15.2884802,"ECCENTRICITY":0.00059001,"INCLINATION":45.0045,"RA_OF_ASC_NODE":114.8762,"ARG_OF_PERICENTER":329.704,"MEAN_ANOMALY":30.3502,"EPHEMERIS_TYPE":0,"CLASSIFICATION_TYPE":"U","NORAD_CAT_ID":62381,"ELEMENT_SET_NO":999,"REV_AT_EPOCH":6774,"BSTAR":0.00033290115,"MEAN_MOTION_DOT":9.223e-5,"MEAN_MOTION_DDOT":0}]
